ONEWEB-0709             
1 55172U 23004AJ  25005.76476992  .00000341  00000+0  92611-3 0  9990
2 55172  87.8909 126.2125 0002235 128.7573 231.3755 13.11420507 96743
ONEWEB-0710             
1 55173U 23004AK  25005.67520191  .00000037  00000+0  61447-4 0  9998
2 55173  87.9103 110.9848 0001747 101.6187 258.5140 13.17650868 98114
ONEWEB-0711             
1 55174U 23004AL  25005.27815166 -.00000837  00000+0 -23989-2 0  9991
2 55174  87.8902 126.2767 0002193  86.7786 273.3593 13.11416273 96642
ONEWEB-0713             
1 55175U 23004AM  25005.75457379 -.00000202  00000+0 -60564-3 0  9990
2 55175  87.8911 126.1908 0001803  95.8728 264.2606 13.11416185 96694
ONEWEB-0715             
1 55176U 23004AN  25005.29170507 -.00000154  00000+0 -46960-3 0  9995
2 55176  87.8911 126.2829 0001938 111.8052 248.3282 13.11416797 96676
ONEWEB-0716             
1 55177U 23004AP  25005.28875738  .00000181  00000+0  43189-3 0  9991
2 55177  87.9107 111.0576 0001490 103.9176 256.2121 13.17652083 98069
ONEWEB-0717             
1 55178U 23004AQ  25005.72752158  .00000161  00000+0  38046-3 0  9995
2 55178  87.9101 110.9317 0002427  95.3305 264.8103 13.17651075 98171
ONEWEB-0719             
1 55179U 23004AR  25005.28200590  .00000138  00000+0  32340-3 0  9990
2 55179  87.9104 111.0053 0001490  98.5224 261.6077 13.17651675 98067
ONEWEB-0530             
1 55796U 23029A   25005.74744345  .00000121  00000+0  26633-3 0  9994
2 55796  87.9246  19.4165 0002182  78.3883 281.7495 13.20772582 91526
ONEWEB-0534             
1 55797U 23029B   25005.73481466  .00000084  00000+0  17365-3 0  9996
2 55797  87.9247  19.4265 0001667  89.2434 270.8890 13.20771886 91523
ONEWEB-0556             
1 55798U 23029C   25005.74112566  .00000128  00000+0  28321-3 0  9993
2 55798  87.9247  19.4179 0001695  62.1526 297.9779 13.20771655 91521
ONEWEB-0562             
1 55799U 23029D   25005.72850350  .00000034  00000+0  50878-4 0  9991
2 55799  87.9248  19.4126 0002296  64.7706 295.3666 13.20772081 91522
ONEWEB-0563             
1 55800U 23029E   25005.72218909  .00000016  00000+0  64472-5 0  9998
2 55800  87.9248  19.4284 0001420  91.3241 268.8055 13.20772247 91518
ONEWEB-0564             
1 55801U 23029F   25005.79163328  .00000072  00000+0  14564-3 0  9997
2 55801  87.9248  19.4020 0002030  80.1595 279.9768 13.20772670 91539
ONEWEB-0638             
1 55802U 23029G   25005.44008577  .00002460  00000+0  65962-2 0  9994
2 55802  87.8990  34.7019 0001399  74.5001 285.6283 13.14524862 90061
ONEWEB-0639             
1 55803U 23029H   25005.49864829 -.00000884  00000+0 -22405-2 0  9995
2 55803  87.9159  49.8978 0001872 133.4966 226.6322 13.19729406 89302
ONEWEB-0640             
1 55804U 23029J   25005.37350252  .00000231  00000+0  58866-3 0  9998
2 55804  87.8991  34.7069 0001107  75.7235 284.4017 13.14505162 90073
ONEWEB-0641             
1 55805U 23029K   25005.49391788 -.00001186  00000+0 -29945-2 0  9998
2 55805  87.9155  49.8754 0001692 103.4342 256.6979 13.19730479 89311
ONEWEB-0642             
1 55806U 23029L   25005.41336782  .00000001  00000+0 -30836-4 0  9991
2 55806  87.9162  49.9222 0001572 131.3345 228.7923 13.19726336 89294
ONEWEB-0643             
1 55807U 23029M   25005.49560469 -.00000195  00000+0 -56057-3 0  9998
2 55807  87.8990  34.6621 0001945 123.0743 237.0573 13.14505010 90061
ONEWEB-0644             
1 55808U 23029N   25005.48445103  .00000022  00000+0  22961-4 0  9990
2 55808  87.9164  49.9082 0001619 116.6288 243.5011 13.19726813 89301
ONEWEB-0645             
1 55809U 23029P   25005.48050485 -.00000123  00000+0 -34042-3 0  9992
2 55809  87.9164  49.9075 0001487  96.6312 263.4990 13.19724596 89305
ONEWEB-0646             
1 55810U 23029Q   25005.35888145  .00000047  00000+0  85200-4 0  9998
2 55810  87.9162  49.9279 0001758 106.9791 253.1534 13.19726744 89271
ONEWEB-0648             
1 55811U 23029R   25005.76837491  .00000137  00000+0  33576-3 0  9990
2 55811  87.9000  34.5818 0001076 125.5565 234.5665 13.14504090 90106
ONEWEB-0649             
1 55812U 23029S   25005.39757759  .00000035  00000+0  55096-4 0  9997
2 55812  87.9160  49.9123 0001401 109.9743 250.1541 13.19726076 89312
ONEWEB-0650             
1 55813U 23029T   25005.16539089  .00000082  00000+0  17361-3 0  9991
2 55813  87.9163  49.9646 0001717 103.8899 256.2425 13.19725706 89251
ONEWEB-0652             
1 55814U 23029U   25005.52098882  .00000187  00000+0  46904-3 0  9994
2 55814  87.8993  34.6417 0001911  91.1513 268.9836 13.14502094 90040
ONEWEB-0653             
1 55815U 23029V   25005.50512986  .00000026  00000+0  36276-4 0  9993
2 55815  87.8995  34.6299 0001795  87.0501 273.0834 13.14502236 90078
ONEWEB-0654             
1 55816U 23029W   25005.50037489  .00000101  00000+0  23702-3 0  9997
2 55816  87.8993  34.6356 0002058  83.2293 276.9071 13.14504382 90091
ONEWEB-0656             
1 55817U 23029X   25005.78531647  .00000024  00000+0  26992-4 0  9992
2 55817  87.9248  19.3445 0002399  84.8858 275.2549 13.20771069 91534
ONEWEB-0657             
1 55818U 23029Y   25005.38810007  .00000072  00000+0  14740-3 0  9999
2 55818  87.9163  49.9250 0002685 102.1800 257.9634 13.19726069 89293
ONEWEB-0658             
1 55819U 23029Z   25005.53499305  .00000099  00000+0  21482-3 0  9991
2 55819  87.9162  49.8301 0001644 114.7100 245.4204 13.19726647 89326
ONEWEB-0660             
1 55820U 23029AA  25005.78263536 -.00000390  00000+0 -10867-2 0  9995
2 55820  87.8992  34.5522 0001370  93.2677 266.8610 13.14502441 90116
ONEWEB-0661             
1 55821U 23029AB  25005.51306468  .00000155  00000+0  38282-3 0  9998
2 55821  87.8992  34.6748 0001390  87.7069 272.4220 13.14503012 90062
ONEWEB-0662             
1 55822U 23029AC  25005.77629138 -.00000048  00000+0 -16311-3 0  9991
2 55822  87.8993  34.6297 0001397  98.0737 262.0551 13.14505609 90142
ONEWEB-0663             
1 55823U 23029AD  25005.77351914  .00000052  00000+0  97050-4 0  9999
2 55823  87.9249  19.4052 0001331  95.2878 264.8407 13.20819707 91528
ONEWEB-0664             
1 55824U 23029AE  25005.77268857  .00000108  00000+0  23337-3 0  9991
2 55824  87.9247  19.4222 0001683  74.6663 285.4657 13.20771826 91524
ONEWEB-0665             
1 55825U 23029AF  25005.50988773  .00000096  00000+0  22430-3 0  9998
2 55825  87.8991  34.6501 0001520  97.0013 263.1290 13.14502024 90088
ONEWEB-0666             
1 55826U 23029AG  25005.76637847  .00000029  00000+0  39791-4 0  9995
2 55826  87.9248  19.4131 0002134  86.8719 273.2659 13.20772312 91534
ONEWEB-0667             
1 55827U 23029AH  25005.76005881  .00000107  00000+0  23079-3 0  9991
2 55827  87.9246  19.3470 0001601  87.4323 272.6993 13.20769292 91520
ONEWEB-0669             
1 55828U 23029AJ  25005.45230619  .00000133  00000+0  29524-3 0  9997
2 55828  87.9244  19.4446 0002329  74.8261 285.3130 13.20772622 91482
ONEWEB-0670             
1 55829U 23029AK  25005.79215621 -.00000095  00000+0 -28939-3 0  9999
2 55829  87.8996  34.6063 0001450  81.2685 278.8609 13.14502667 90835
ONEWEB-0671             
1 55830U 23029AL  25005.53026333  .00000101  00000+0  22007-3 0  9999
2 55830  87.9158  49.8918 0001548  90.1686 269.9625 13.19726091 89306
ONEWEB-0672             
1 55831U 23029AM  25005.75060174  .00000116  00000+0  25331-3 0  9994
2 55831  87.9247  19.3702 0002112  89.6022 270.5353 13.20772325 91520
ONEWEB-0673             
1 55832U 23029AN  25005.50656793 -.00000024  00000+0 -92963-4 0  9992
2 55832  87.9160  49.8621 0001731 106.1739 253.9584 13.19726842 89304
ONEWEB-0674             
1 55833U 23029AP  25005.30373746  .00000184  00000+0  46177-3 0  9995
2 55833  87.8995  34.6990 0001458  77.8941 282.2351 13.14502015 90067
ONEWEB-0675             
1 55834U 23029AQ  25005.52235676  .00000081  00000+0  17091-3 0  9998
2 55834  87.9163  49.9002 0002153 103.8585 256.2788 13.19726433 89325
ONEWEB-0720             
1 55835U 23029AR  25005.51446264  .00000094  00000+0  20145-3 0  9993
2 55835  87.9163  49.9001 0001462 107.1033 253.0260 13.19726066 89245
ONEWEB-0537             
1 56046U 23043A   25005.85168795 -.00000368  00000+0 -99506-3 0  9994
2 56046  87.9105 333.8281 0002017  85.7161 274.4200 13.16593747 89573
ONEWEB-0538             
1 56047U 23043B   25005.61735659  .00000044  00000+0  81617-4 0  9992
2 56047  87.9104 333.8961 0001773  92.5007 267.6327 13.16597571 89552
ONEWEB-0546             
1 56048U 23043C   25005.83268430  .00000085  00000+0  18803-3 0  9996
2 56048  87.9104 333.8210 0002639  83.3349 276.8083 13.16597516 89571
ONEWEB-0547             
1 56049U 23043D   25005.87258425  .00000061  00000+0  11727-3 0  9996
2 56049  87.9304 349.0451 0001753  91.8246 268.3089 13.21826850 88568
ONEWEB-0548             
1 56050U 23043E   25005.85801358 -.00000320  00000+0 -87037-3 0  9992
2 56050  87.9108 333.8568 0001829  67.1624 292.9700 13.16593699 89573
ONEWEB-0549             
1 56051U 23043F   25005.63681856  .00000068  00000+0  13240-3 0  9990
2 56051  87.9305 349.0930 0001645  99.8973 260.2347 13.21826985 88533
ONEWEB-0550             
1 56052U 23043G   25005.69989816  .00000020  00000+0  16325-4 0  9990
2 56052  87.9302 349.0809 0001770  81.6916 278.4418 13.21825592 88545
ONEWEB-0551             
1 56053U 23043H   25005.69765318 -.00000023  00000+0 -96041-4 0  9998
2 56053  87.9069   4.2589 0001579  94.3522 265.7789 13.15546472 87046
ONEWEB-0552             
1 56054U 23043J   25005.69358795  .00000028  00000+0  35335-4 0  9998
2 56054  87.9302 349.0913 0001501  83.3488 276.7817 13.21825988 88541
ONEWEB-0553             
1 56055U 23043K   25005.61104917  .00000097  00000+0  22032-3 0  9991
2 56055  87.9102 333.8945 0002124  84.4761 275.6612 13.16595537 89555
ONEWEB-0554             
1 56056U 23043L   25005.82635380  .00000093  00000+0  20882-3 0  9995
2 56056  87.9102 333.8782 0001571  62.3417 297.7873 13.16592657 89568
